NORAD_CAT_ID,OBJECT_NAME,OBJECT_TYPE,EPOCH,MEAN_MOTION,ECCENTRICITY,INCLINATION,RA_OF_ASC_NODE,ARG_OF_PERICENTER,MEAN_ANOMALY,BSTAR,MEAN_MOTION_DOT,MEAN_MOTION_DDOT,TLE_LINE0,TLE_LINE1,TLE_LINE2,SEMIMAJOR_AXIS,PERIOD,APOGEE,PERIGEE,DECAYED
53743.0,STARLINK-4645,PAYLOAD,2023-11-22 11:56:36,15.08851694,0.0001427,53.2179,67.0018,83.2338,276.8816,0.00013129,1.803e-05,0.0,0 STARLINK-4645,1 53743U 22107AV  23326.49764061  .00001803  00000-0  13129-3 0  9998,2 53743  53.2179  67.0018 0001427  83.2338 276.8816 15.08851694 67271,6917.845,95.437,540.697,538.722,0.0
53743.0,STARLINK-4645,PAYLOAD,2023-11-22 13:31:59,15.08857597,0.0001387,53.2185,66.7046,84.5845,275.5305,0.0001646,2.334e-05,0.0,0 STARLINK-4645,1 53743U 22107AV  23326.56387740  .00002334  00000-0  16460-3 0  9992,2 53743  53.2185  66.7046 0001387  84.5845 275.5305 15.08857597 68062,6917.827,95.436,540.651,538.732,0.0
53743.0,STARLINK-4645,PAYLOAD,2023-11-23 11:47:23,15.08836357,0.0001358,53.2184,62.5418,100.0891,260.0255,2.2839e-05,7.6e-07,0.0,0 STARLINK-4645,1 53743U 22107AV  23327.49124807  .00000076  00000-0  22839-4 0  9997,2 53743  53.2184  62.5418 0001358 100.0891 260.0255 15.08836357 67424,6917.892,95.438,540.696,538.817,0.0
53743.0,STARLINK-4645,PAYLOAD,2023-11-23 16:33:33,15.08838466,0.0001356,53.2187,61.6491,100.5129,259.6016,7.3878e-05,8.88e-06,0.0,0 STARLINK-4645,1 53743U 22107AV  23327.68996779  .00000888  00000-0  73878-4 0  9993,2 53743  53.2187  61.6491 0001356 100.5129 259.6016 15.08838466 68237,6917.885,95.438,540.688,538.812,0.0
53743.0,STARLINK-4645,PAYLOAD,2023-11-24 13:13:34,15.08834389,0.0001625,53.2186,57.7828,102.0014,258.116,5.517e-05,5.9e-06,0.0,0 STARLINK-4645,1 53743U 22107AV  23328.55109348  .00000590  00000-0  55170-4 0  9993,2 53743  53.2186  57.7828 0001625 102.0014 258.1160 15.08834389 68363,6917.898,95.438,540.887,538.638,0.0
53743.0,STARLINK-4645,PAYLOAD,2023-11-24 16:24:20,15.08837334,0.0001581,53.2182,57.1861,103.7676,256.3492,0.00014752,2.06e-05,0.0,0 STARLINK-4645,1 53743U 22107AV  23328.68357309  .00002060  00000-0  14752-3 0  9993,2 53743  53.2182  57.1861 0001581 103.7676 256.3492 15.08837334 67600,6917.889,95.438,540.847,538.66,0.0
53743.0,STARLINK-4645,PAYLOAD,2023-11-25 13:04:21,15.08860923,0.0001601,53.2191,53.3201,108.825,251.2915,0.00080753,0.00012595,0.0,0 STARLINK-4645,1 53743U 22107AV  23329.54469282  .00012595  00000-0  80753-3 0  9991,2 53743  53.2191  53.3201 0001601 108.8250 251.2915 15.08860923 68518,6917.816,95.436,540.789,538.574,0.0
53743.0,STARLINK-4645,PAYLOAD,2023-11-25 16:15:07,15.08863881,0.000165,53.219,52.7245,118.8864,241.2294,0.00079166,0.00012342,0.0,0 STARLINK-4645,1 53743U 22107AV  23329.67716981  .00012342  00000-0  79166-3 0  9992,2 53743  53.2190  52.7245 0001650 118.8864 241.2294 15.08863881 68531,6917.807,95.436,540.814,538.531,0.0
53743.0,STARLINK-4645,PAYLOAD,2023-11-26 11:19:44,15.08862033,0.0001614,53.2186,49.1583,108.171,251.9458,0.00034051,5.139e-05,0.0,0 STARLINK-4645,1 53743U 22107AV  23330.47204096  .00005139  00000-0  34051-3 0  9991,2 53743  53.2186  49.1583 0001614 108.1710 251.9458 15.08862033 67877,6917.813,95.436,540.795,538.562,0.0
53743.0,STARLINK-4645,PAYLOAD,2023-11-26 12:55:07,15.08864394,0.0001828,53.2188,48.8633,67.3076,292.8109,0.0004232,6.458e-05,0.0,0 STARLINK-4645,1 53743U 22107AV  23330.53828254  .00006458  00000-0  42320-3 0  9999,2 53743  53.2188  48.8633 0001828  67.3076 292.8109 15.08864394 68666,6917.806,95.436,540.935,538.406,0.0
53743.0,STARLINK-4645,PAYLOAD,2023-11-26 14:30:30,15.08871034,0.0001542,53.2183,48.5639,84.3152,275.8016,0.00059401,9.186e-05,0.0,0 STARLINK-4645,1 53743U 22107AV  23330.60451802  .00009186  00000-0  59401-3 0  9997,2 53743  53.2183  48.5639 0001542  84.3152 275.8016 15.08871034 68679,6917.786,95.436,540.717,538.584,0.0
53743.0,STARLINK-4645,PAYLOAD,2023-11-27 04:48:59,15.08801804,9.49e-05,53.2194,45.8863,150.3975,209.7071,-0.00084775,-0.0001374,0.0,0 STARLINK-4645,1 53743U 22107AV  23331.20069353 -.00013740  00000-0 -84775-3 0  9995,2 53743  53.2194  45.8863 0000949 150.3975 209.7071 15.08801804 67985,6917.997,95.44,540.519,539.206,0.0
53743.0,STARLINK-4645,PAYLOAD,2023-11-27 12:45:56,15.08800114,0.0001486,53.2179,44.4013,119.0719,241.0422,6.6456e-05,7.69e-06,0.0,0 STARLINK-4645,1 53743U 22107AV  23331.53190429  .00000769  00000-0  66456-4 0  9992,2 53743  53.2179  44.4013 0001486 119.0719 241.0422 15.08800114 68810,6918.002,95.44,540.895,538.839,0.0
53743.0,STARLINK-4645,PAYLOAD,2023-11-28 11:01:21,15.08844182,0.0002137,53.2184,40.2427,56.7904,303.3293,0.0013143,0.00020694,0.0,0 STARLINK-4645,1 53743U 22107AV  23332.45927505  .00020694  00000-0  13143-2 0  9999,2 53743  53.2184  40.2427 0002137  56.7904 303.3293 15.08844182 68176,6917.868,95.437,541.211,538.254,0.0
53743.0,STARLINK-4645,PAYLOAD,2023-11-28 14:12:06,15.08870598,0.000143,53.2172,39.6439,107.0999,253.015,0.001899,0.00030089,0.0,0 STARLINK-4645,1 53743U 22107AV  23332.59174593  .00030089  00000-0  18990-2 0  9999,2 53743  53.2172  39.6439 0001430 107.0999 253.0150 15.08870598 68978,6917.787,95.436,540.641,538.663,0.0
53743.0,STARLINK-4645,PAYLOAD,2023-11-29 04:30:35,15.08864589,0.0001429,53.2177,36.9692,80.7391,279.3763,0.0016151,0.00025527,0.0,0 STARLINK-4645,1 53743U 22107AV  23333.18790650  .00025527  00000-0  16151-2 0  9991,2 53743  53.2177  36.9692 0001429  80.7391 279.3763 15.08864589 68283,6917.805,95.436,540.659,538.682,0.0
53743.0,STARLINK-4645,PAYLOAD,2023-11-29 10:52:07,15.0886811,0.000138,53.2174,35.7776,87.5537,272.5613,0.0017174,0.00027171,0.0,0 STARLINK-4645,1 53743U 22107AV  23333.45286258  .00027171  00000-0  17174-2 0  9998,2 53743  53.2174  35.7776 0001380  87.5537 272.5613 15.08868110 69108,6917.794,95.436,540.614,538.705,0.0
53743.0,STARLINK-4645,PAYLOAD,2023-11-30 09:07:30,15.08859249,0.0001753,53.2185,31.6077,105.5477,254.5709,0.0010152,0.00015914,0.0,0 STARLINK-4645,1 53743U 22107AV  23334.38021772  .00015914  00000-0  10152-2 0  9990,2 53743  53.2185  31.6077 0001753 105.5477 254.5709 15.08859249 68464,6917.822,95.436,540.899,538.474,0.0
53743.0,STARLINK-4645,PAYLOAD,2023-12-01 08:58:17,15.08845555,0.0002587,53.2192,27.1591,132.7919,227.3291,0.00053818,8.289e-05,0.0,0 STARLINK-4645,1 53743U 22107AV  23335.37381922  .00008289  00000-0  53818-3 0  9990,2 53743  53.2192  27.1591 0002587 132.7919 227.3291 15.08845555 68618,6917.863,95.437,541.518,537.939,0.0
53743.0,STARLINK-4645,PAYLOAD,2023-12-01 10:33:41,15.08844569,0.000154,53.218,26.8576,98.9327,261.184,0.00079184,0.00012338,0.0,0 STARLINK-4645,1 53743U 22107AV  23335.44006202  .00012338  00000-0  79184-3 0  9997,2 53743  53.2180  26.8576 0001540  98.9327 261.1840 15.08844569 69406,6917.866,95.437,540.797,538.666,0.0
53743.0,STARLINK-4645,PAYLOAD,2023-12-02 08:49:03,15.08902455,0.000162,53.2186,22.6993,100.8139,259.3036,0.0027202,0.00043345,0.0,0 STARLINK-4645,1 53743U 22107AV  23336.36740576  .00043345  00000-0  27202-2 0  9993,2 53743  53.2186  22.6993 0001620 100.8139 259.3036 15.08902455 68765,6917.689,95.434,540.675,538.434,0.0
53743.0,STARLINK-4645,PAYLOAD,2023-12-03 11:50:38,15.08796134,0.0001378,53.2178,17.6424,86.4534,273.6615,-0.00055731,-9.136e-05,0.0,0 STARLINK-4645,1 53743U 22107AV  23337.49350664 -.00009136  00000-0 -55731-3 0  9994,2 53743  53.2178  17.6424 0001378  86.4534 273.6615 15.08796134 68933,6918.014,95.44,540.833,538.926,0.0
53743.0,STARLINK-4645,PAYLOAD,2023-12-03 13:26:02,15.08796651,0.0001214,53.2171,17.3427,90.7759,269.3372,-0.00037955,-6.316e-05,0.0,0 STARLINK-4645,1 53743U 22107AV  23337.55974906 -.00006316  00000-0 -37955-3 0  9997,2 53743  53.2171  17.3427 0001214  90.7759 269.3372 15.08796651 69726,6918.013,95.44,540.718,539.038,0.0
53743.0,STARLINK-4645,PAYLOAD,2023-12-03 22:58:22,15.08799277,0.0001336,53.217,15.5592,67.6891,292.4243,0.00066132,0.00010241,0.0,0 STARLINK-4645,1 53743U 22107AV  23337.95720203  .00010241  00000-0  66132-3 0  9999,2 53743  53.2170  15.5592 0001336  67.6891 292.4243 15.08799277 69005,6918.005,95.44,540.794,538.946,0.0
53743.0,STARLINK-4645,PAYLOAD,2023-12-04 11:41:27,15.0883101,0.0001494,53.2171,13.1807,69.507,290.6082,0.0011834,0.00018591,0.0,0 STARLINK-4645,1 53743U 22107AV  23338.48712786  .00018591  00000-0  11834-2 0  9999,2 53743  53.2171  13.1807 0001494  69.5070 290.6082 15.08831010 69085,6917.908,95.438,540.806,538.739,0.0
53743.0,STARLINK-4645,PAYLOAD,2023-12-05 11:32:13,15.0887973,0.0001723,53.217,8.7202,67.0051,293.1122,0.0015363,0.00024274,0.0,0 STARLINK-4645,1 53743U 22107AV  23339.48071662  .00024274  00000-0  15363-2 0  9997,2 53743  53.2170   8.7202 0001723  67.0051 293.1122 15.08879730 69231,6917.759,95.435,540.816,538.432,0.0
53743.0,STARLINK-4645,PAYLOAD,2023-12-06 08:12:13,15.08863946,0.0001683,53.2194,4.8489,90.7612,269.3573,0.00050096,7.699e-05,0.0,0 STARLINK-4645,1 53743U 22107AV  23340.34182762  .00007699  00000-0  50096-3 0  9993,2 53743  53.2194   4.8489 0001683  90.7612 269.3573 15.08863946 69363,6917.807,95.436,540.836,538.508,0.0
53743.0,STARLINK-4645,PAYLOAD,2023-12-07 04:52:14,15.08848012,0.0001496,53.2193,0.9866,79.7129,280.4032,0.0001886,2.716e-05,0.0,0 STARLINK-4645,1 53743U 22107AV  23341.20294868  .00002716  00000-0  18860-3 0  9998,2 53743  53.2193   0.9866 0001496  79.7129 280.4032 15.08848012 69495,6917.856,95.437,540.756,538.686,0.0
53743.0,STARLINK-4645,PAYLOAD,2023-12-07 11:13:47,15.0884065,0.0001565,53.2179,359.7977,77.8736,282.2431,0.00019947,2.888e-05,0.0,0 STARLINK-4645,1 53743U 22107AV  23341.46790946  .00002888  00000-0  19947-3 0  9991,2 53743  53.2179 359.7977 0001565  77.8736 282.2431 15.08840650 70313,6917.878,95.438,540.826,538.661,0.0
53743.0,STARLINK-4645,PAYLOAD,2023-12-08 01:32:15,15.08835228,0.0001696,53.2183,357.1212,89.6501,270.4686,0.0003665,5.549e-05,0.0,0 STARLINK-4645,1 53743U 22107AV  23342.06407407  .00005549  00000-0  36650-3 0  9992,2 53743  53.2183 357.1212 0001696  89.6501 270.4686 15.08835228 69626,6917.895,95.438,540.933,538.587,0.0
